{
  "type": "FeatureCollection",
  "features": [
    {
      "type": "Feature",
      "properties": {
        "norad_id": 38169,
        "name": "FENGYUN 1C DEB",
        "group": "fengyun-1c-debris",
        "lat": 69.62239771890904,
        "lon": 155.04277326815705,
        "alt_km": 630.4183692186534,
        "timestamp": "2025-12-02T15:49:07.480188+00:00",
        "meta_object_name": "FENGYUN 1C DEB",
        "meta_object_id": "1999-025ERS",
        "meta_epoch": "2025-11-22T03:51:43.920000",
        "meta_mean_motion": 14.70462609,
        "meta_eccentricity": 0.00311315,
        "meta_inclination": 98.9783,
        "meta_ra_of_asc_node": 298.2991,
        "meta_arg_of_pericenter": 127.7379,
        "meta_mean_anomaly": 232.6652,
        "meta_ephemeris_type": 0,
        "meta_classification_type": "U",
        "meta_norad_cat_id": 38169,
        "meta_element_set_no": 999,
        "meta_rev_at_epoch": 60966,
        "meta_bstar": 0.0026738914,
        "meta_mean_motion_dot": 0.00016302,
        "meta_mean_motion_ddot": 0,
        "tle_line1": "1 38169U 99025ERS 25326.16092500  .00016302  00000+0  26739-2 0  9993",
        "tle_line2": "2 38169  98.9783 298.2991 0031131 127.7379 232.6652 14.70462609609660"
      },
      "geometry": {
        "type": "Point",
        "coordinates": [
          155.04277326815705,
          69.62239771890904
        ]
      }
    },
    {
      "type": "Feature",
      "properties": {
        "norad_id": 38173,
        "name": "FENGYUN 1C DEB",
        "group": "fengyun-1c-debris",
        "lat": -35.91558664017983,
        "lon": 49.817296237538834,
        "alt_km": 740.7983471999214,
        "timestamp": "2025-12-02T15:49:07.480199+00:00",
        "meta_object_name": "FENGYUN 1C DEB",
        "meta_object_id": "1999-025ERW",
        "meta_epoch": "2025-11-24T11:18:51.497568",
        "meta_mean_motion": 14.37024249,
        "meta_eccentricity": 0.01622994,
        "meta_inclination": 98.9991,
        "meta_ra_of_asc_node": 227.8463,
        "meta_arg_of_pericenter": 166.3393,
        "meta_mean_anomaly": 194.2263,
        "meta_ephemeris_type": 0,
        "meta_classification_type": "U",
        "meta_norad_cat_id": 38173,
        "meta_element_set_no": 999,
        "meta_rev_at_epoch": 60381,
        "meta_bstar": 0.00095115,
        "meta_mean_motion_dot": 3.231e-05,
        "meta_mean_motion_ddot": 0,
        "tle_line1": "1 38173U 99025ERW 25328.47142937  .00003231  00000+0  95115-3 0  9996",
        "tle_line2": "2 38173  98.9991 227.8463 0162299 166.3393 194.2263 14.37024249603812"
      },
      "geometry": {
        "type": "Point",
        "coordinates": [
          49.817296237538834,
          -35.91558664017983
        ]
      }
    },
    {
      "type": "Feature",
      "properties": {
        "norad_id": 38491,
        "name": "FENGYUN 1C DEB",
        "group": "fengyun-1c-debris",
        "lat": 80.96764012065347,
        "lon": -98.65373371575997,
        "alt_km": 762.1646055086385,
        "timestamp": "2025-12-02T15:49:07.480210+00:00",
        "meta_object_name": "FENGYUN 1C DEB",
        "meta_object_id": "1999-025ESA",
        "meta_epoch": "2025-11-07T18:37:17.530176",
        "meta_mean_motion": 13.96213514,
        "meta_eccentricity": 0.02268827,
        "meta_inclination": 98.9363,
        "meta_ra_of_asc_node": 318.985,
        "meta_arg_of_pericenter": 122.5823,
        "meta_mean_anomaly": 239.7468,
        "meta_ephemeris_type": 0,
        "meta_classification_type": "U",
        "meta_norad_cat_id": 38491,
        "meta_element_set_no": 999,
        "meta_rev_at_epoch": 65972,
        "meta_bstar": 0.00032180703,
        "meta_mean_motion_dot": 5.09e-06,
        "meta_mean_motion_ddot": 0,
        "tle_line1": "1 38491U 99025ESA 25311.77589734  .00000509  00000+0  32181-3 0  9993",
        "tle_line2": "2 38491  98.9363 318.9850 0226882 122.5823 239.7468 13.96213514659723"
      },
      "geometry": {
        "type": "Point",
        "coordinates": [
          -98.65373371575997,
          80.96764012065347
        ]
      }
    },
    {
      "type": "Feature",
      "properties": {
        "norad_id": 38492,
        "name": "FENGYUN 1C DEB",
        "group": "fengyun-1c-debris",
        "lat": 72.92696929375606,
        "lon": -101.32210459107718,
        "alt_km": 854.2396187025888,
        "timestamp": "2025-12-02T15:49:07.480232+00:00",
        "meta_object_name": "FENGYUN 1C DEB",
        "meta_object_id": "1999-025ESB",
        "meta_epoch": "2025-11-07T22:24:32.618304",
        "meta_mean_motion": 13.93045648,
        "meta_eccentricity": 0.02334575,
        "meta_inclination": 98.6097,
        "meta_ra_of_asc_node": 26.0841,
        "meta_arg_of_pericenter": 245.4391,
        "meta_mean_anomaly": 112.2279,
        "meta_ephemeris_type": 0,
        "meta_classification_type": "U",
        "meta_norad_cat_id": 38492,
        "meta_element_set_no": 999,
        "meta_rev_at_epoch": 55519,
        "meta_bstar": 0.0058484062,
        "meta_mean_motion_dot": 9.486e-05,
        "meta_mean_motion_ddot": 0,
        "tle_line1": "1 38492U 99025ESB 25311.93371086  .00009486  00000+0  58484-2 0  9997",
        "tle_line2": "2 38492  98.6097  26.0841 0233457 245.4391 112.2279 13.93045648555192"
      },
      "geometry": {
        "type": "Point",
        "coordinates": [
          -101.32210459107718,
          72.92696929375606
        ]
      }
    },
    {
      "type": "Feature",
      "properties": {
        "norad_id": 38493,
        "name": "FENGYUN 1C DEB",
        "group": "fengyun-1c-debris",
        "lat": -65.69688063848223,
        "lon": 95.98591794519001,
        "alt_km": 744.097644979227,
        "timestamp": "2025-12-02T15:49:07.480243+00:00",
        "meta_object_name": "FENGYUN 1C DEB",
        "meta_object_id": "1999-025ESC",
        "meta_epoch": "2025-12-01T03:19:18.848640",
        "meta_mean_motion": 13.62296981,
        "meta_eccentricity": 0.04264899,
        "meta_inclination": 99.0772,
        "meta_ra_of_asc_node": 295.2979,
        "meta_arg_of_pericenter": 275.3931,
        "meta_mean_anomaly": 79.8712,
        "meta_ephemeris_type": 0,
        "meta_classification_type": "U",
        "meta_norad_cat_id": 38493,
        "meta_element_set_no": 999,
        "meta_rev_at_epoch": 56340,
        "meta_bstar": 0.00048230888,
        "meta_mean_motion_dot": 6.45e-06,
        "meta_mean_motion_ddot": 0,
        "tle_line1": "1 38493U 99025ESC 25335.13841260  .00000645  00000+0  48231-3 0  9990",
        "tle_line2": "2 38493  99.0772 295.2979 0426489 275.3931  79.8712 13.62296981563408"
      },
      "geometry": {
        "type": "Point",
        "coordinates": [
          95.98591794519001,
          -65.69688063848223
        ]
      }
    },
    {
      "type": "Feature",
      "properties": {
        "norad_id": 38494,
        "name": "FENGYUN 1C DEB",
        "group": "fengyun-1c-debris",
        "lat": -19.8561376045725,
        "lon": -69.3104220146533,
        "alt_km": 740.8567824221664,
        "timestamp": "2025-12-02T15:49:07.480253+00:00",
        "meta_object_name": "FENGYUN 1C DEB",
        "meta_object_id": "1999-025ESD",
        "meta_epoch": "2025-11-30T02:08:48.245856",
        "meta_mean_motion": 13.99599294,
        "meta_eccentricity": 0.0387254,
        "meta_inclination": 98.433,
        "meta_ra_of_asc_node": 285.2437,
        "meta_arg_of_pericenter": 44.6936,
        "meta_mean_anomaly": 318.476,
        "meta_ephemeris_type": 0,
        "meta_classification_type": "U",
        "meta_norad_cat_id": 38494,
        "meta_element_set_no": 999,
        "meta_rev_at_epoch": 6977,
        "meta_bstar": 0.0054391,
        "meta_mean_motion_dot": 0.00015208,
        "meta_mean_motion_ddot": 0,
        "tle_line1": "1 38494U 99025ESD 25334.08944729  .00015208  00000+0  54391-2 0  9992",
        "tle_line2": "2 38494  98.4330 285.2437 0387254  44.6936 318.4760 13.99599294 69777"
      },
      "geometry": {
        "type": "Point",
        "coordinates": [
          -69.3104220146533,
          -19.8561376045725
        ]
      }
    },
    {
      "type": "Feature",
      "properties": {
        "norad_id": 38495,
        "name": "FENGYUN 1C DEB",
        "group": "fengyun-1c-debris",
        "lat": 34.978978493856246,
        "lon": 179.9692539504938,
        "alt_km": 825.0876749943491,
        "timestamp": "2025-12-02T15:49:07.480264+00:00",
        "meta_object_name": "FENGYUN 1C DEB",
        "meta_object_id": "1999-025ESE",
        "meta_epoch": "2025-12-02T06:20:41.772768",
        "meta_mean_motion": 13.69106573,
        "meta_eccentricity": 0.0252581,
        "meta_inclination": 99.1709,
        "meta_ra_of_asc_node": 353.1036,
        "meta_arg_of_pericenter": 165.9119,
        "meta_mean_anomaly": 194.9245,
        "meta_ephemeris_type": 0,
        "meta_classification_type": "U",
        "meta_norad_cat_id": 38495,
        "meta_element_set_no": 999,
        "meta_rev_at_epoch": 60969,
        "meta_bstar": 0.0025865778,
        "meta_mean_motion_dot": 2.759e-05,
        "meta_mean_motion_ddot": 0,
        "tle_line1": "1 38495U 99025ESE 25336.26437237  .00002759  00000+0  25866-2 0  9998",
        "tle_line2": "2 38495  99.1709 353.1036 0252581 165.9119 194.9245 13.69106573609697"
      },
      "geometry": {
        "type": "Point",
        "coordinates": [
          179.9692539504938,
          34.978978493856246
        ]
      }
    }
  ]
}